{"fetched_at":"2026-07-14T06:34:23.487Z","source":"https://celestrak.org/NORAD/elements/gp.php?GROUP=planet&FORMAT=JSON","constellation":"skysat","records":[{"OBJECT_NAME":"SKYSAT-A","OBJECT_ID":"2013-066C","EPOCH":"2026-07-13T17:03:41.429088","CLASSIFICATION_TYPE":"U","MEAN_MOTION":15.13110264,"ECCENTRICITY":0.0020324,"INCLINATION":97.3804,"RA_OF_ASC_NODE":243.2628,"ARG_OF_PERICENTER":218.8459,"MEAN_ANOMALY":141.1313,"EPHEMERIS_TYPE":0,"NORAD_CAT_ID":39418,"ELEMENT_SET_NO":999,"REV_AT_EPOCH":69249,"BSTAR":0.000088898,"MEAN_MOTION_DOT":0.00001517,"MEAN_MOTION_DDOT":0},{"OBJECT_NAME":"SKYSAT-B","OBJECT_ID":"2014-037D","EPOCH":"2026-07-13T19:41:16.549152","CLASSIFICATION_TYPE":"U","MEAN_MOTION":14.88090194,"ECCENTRICITY":0.0005458,"INCLINATION":98.3852,"RA_OF_ASC_NODE":155.3068,"ARG_OF_PERICENTER":176.8262,"MEAN_ANOMALY":183.2988,"EPHEMERIS_TYPE":0,"NORAD_CAT_ID":40072,"ELEMENT_SET_NO":999,"REV_AT_EPOCH":64992,"BSTAR":0.0000731,"MEAN_MOTION_DOT":0.00000611,"MEAN_MOTION_DDOT":0},{"OBJECT_NAME":"SKYSAT-C1","OBJECT_ID":"2016-040C","EPOCH":"2026-07-13T15:46:01.644672","CLASSIFICATION_TYPE":"U","MEAN_MOTION":15.36731294,"ECCENTRICITY":0.0000427,"INCLINATION":96.9551,"RA_OF_ASC_NODE":224.9469,"ARG_OF_PERICENTER":340.2568,"MEAN_ANOMALY":19.8661,"EPHEMERIS_TYPE":0,"NORAD_CAT_ID":41601,"ELEMENT_SET_NO":999,"REV_AT_EPOCH":56193,"BSTAR":0.00015145,"MEAN_MOTION_DOT":0.00005359,"MEAN_MOTION_DDOT":0},{"OBJECT_NAME":"SKYSAT-C4","OBJECT_ID":"2016-058B","EPOCH":"2026-07-12T14:11:16.089216","CLASSIFICATION_TYPE":"U","MEAN_MOTION":15.49378795,"ECCENTRICITY":0.0003375,"INCLINATION":96.9166,"RA_OF_ASC_NODE":214.3113,"ARG_OF_PERICENTER":121.6663,"MEAN_ANOMALY":238.4919,"EPHEMERIS_TYPE":0,"NORAD_CAT_ID":41771,"ELEMENT_SET_NO":999,"REV_AT_EPOCH":54940,"BSTAR":0.00021392,"MEAN_MOTION_DOT":0.00011647,"MEAN_MOTION_DDOT":0},{"OBJECT_NAME":"SKYSAT-C5","OBJECT_ID":"2016-058C","EPOCH":"2026-07-13T15:29:25.359360","CLASSIFICATION_TYPE":"U","MEAN_MOTION":15.33705753,"ECCENTRICITY":0.0002362,"INCLINATION":97.0457,"RA_OF_ASC_NODE":234.1005,"ARG_OF_PERICENTER":164.8572,"MEAN_ANOMALY":195.2743,"EPHEMERIS_TYPE":0,"NORAD_CAT_ID":41772,"ELEMENT_SET_NO":999,"REV_AT_EPOCH":54780,"BSTAR":0.00013491,"MEAN_MOTION_DOT":0.00004323,"MEAN_MOTION_DDOT":0},{"OBJECT_NAME":"SKYSAT-C2","OBJECT_ID":"2016-058D","EPOCH":"2026-07-13T14:23:42.130752","CLASSIFICATION_TYPE":"U","MEAN_MOTION":15.42656231,"ECCENTRICITY":0.0001785,"INCLINATION":97.0164,"RA_OF_ASC_NODE":215.7083,"ARG_OF_PERICENTER":0.0746,"MEAN_ANOMALY":0.0502,"EPHEMERIS_TYPE":0,"NORAD_CAT_ID":41773,"ELEMENT_SET_NO":999,"REV_AT_EPOCH":54912,"BSTAR":0.00017463,"MEAN_MOTION_DOT":0.00007526,"MEAN_MOTION_DDOT":0},{"OBJECT_NAME":"SKYSAT-C3","OBJECT_ID":"2016-058E","EPOCH":"2026-07-13T14:58:40.862784","CLASSIFICATION_TYPE":"U","MEAN_MOTION":15.53657678,"ECCENTRICITY":0.0002484,"INCLINATION":96.8988,"RA_OF_ASC_NODE":224.4719,"ARG_OF_PERICENTER":134.4789,"MEAN_ANOMALY":225.6669,"EPHEMERIS_TYPE":0,"NORAD_CAT_ID":41774,"ELEMENT_SET_NO":999,"REV_AT_EPOCH":55021,"BSTAR":0.00024573,"MEAN_MOTION_DOT":0.00015609,"MEAN_MOTION_DDOT":0},{"OBJECT_NAME":"SKYSAT-C11","OBJECT_ID":"2017-068A","EPOCH":"2026-07-13T09:08:13.457184","CLASSIFICATION_TYPE":"U","MEAN_MOTION":15.59255142,"ECCENTRICITY":0.00010834,"INCLINATION":97.437,"RA_OF_ASC_NODE":344.3823,"ARG_OF_PERICENTER":159.1653,"MEAN_ANOMALY":200.9648,"EPHEMERIS_TYPE":0,"NORAD_CAT_ID":42987,"ELEMENT_SET_NO":999,"REV_AT_EPOCH":48732,"BSTAR":0.00024538513,"MEAN_MOTION_DOT":0.00019174,"MEAN_MOTION_DDOT":0},{"OBJECT_NAME":"SKYSAT-C10","OBJECT_ID":"2017-068B","EPOCH":"2026-07-13T19:50:05.898624","CLASSIFICATION_TYPE":"U","MEAN_MOTION":15.35099425,"ECCENTRICITY":0.0001429,"INCLINATION":97.4533,"RA_OF_ASC_NODE":331.9455,"ARG_OF_PERICENTER":109.4223,"MEAN_ANOMALY":250.7175,"EPHEMERIS_TYPE":0,"NORAD_CAT_ID":42988,"ELEMENT_SET_NO":999,"REV_AT_EPOCH":48644,"BSTAR":0.00018613,"MEAN_MOTION_DOT":0.00006257,"MEAN_MOTION_DDOT":0},{"OBJECT_NAME":"SKYSAT-C9","OBJECT_ID":"2017-068C","EPOCH":"2026-07-13T20:19:44.787360","CLASSIFICATION_TYPE":"U","MEAN_MOTION":15.42193178,"ECCENTRICITY":0.0008765,"INCLINATION":97.4452,"RA_OF_ASC_NODE":333.1596,"ARG_OF_PERICENTER":49.1345,"MEAN_ANOMALY":311.066,"EPHEMERIS_TYPE":0,"NORAD_CAT_ID":42989,"ELEMENT_SET_NO":999,"REV_AT_EPOCH":48686,"BSTAR":0.00018306,"MEAN_MOTION_DOT":0.00007774,"MEAN_MOTION_DDOT":0},{"OBJECT_NAME":"SKYSAT-C8","OBJECT_ID":"2017-068D","EPOCH":"2026-07-13T21:17:19.373856","CLASSIFICATION_TYPE":"U","MEAN_MOTION":15.3747509,"ECCENTRICITY":0.0001236,"INCLINATION":97.455,"RA_OF_ASC_NODE":331.9095,"ARG_OF_PERICENTER":102.2605,"MEAN_ANOMALY":257.8778,"EPHEMERIS_TYPE":0,"NORAD_CAT_ID":42990,"ELEMENT_SET_NO":999,"REV_AT_EPOCH":48641,"BSTAR":0.00017326,"MEAN_MOTION_DOT":0.00006283,"MEAN_MOTION_DDOT":0},{"OBJECT_NAME":"SKYSAT-C7","OBJECT_ID":"2017-068E","EPOCH":"2026-07-13T21:09:19.204128","CLASSIFICATION_TYPE":"U","MEAN_MOTION":15.37426088,"ECCENTRICITY":0.0005816,"INCLINATION":97.4561,"RA_OF_ASC_NODE":332.8952,"ARG_OF_PERICENTER":25.8991,"MEAN_ANOMALY":334.2544,"EPHEMERIS_TYPE":0,"NORAD_CAT_ID":42991,"ELEMENT_SET_NO":999,"REV_AT_EPOCH":48647,"BSTAR":0.00017019,"MEAN_MOTION_DOT":0.00006163,"MEAN_MOTION_DDOT":0},{"OBJECT_NAME":"SKYSAT-C6","OBJECT_ID":"2017-068F","EPOCH":"2026-07-13T19:45:34.155072","CLASSIFICATION_TYPE":"U","MEAN_MOTION":15.34154916,"ECCENTRICITY":0.0005137,"INCLINATION":97.4599,"RA_OF_ASC_NODE":332.696,"ARG_OF_PERICENTER":92.6893,"MEAN_ANOMALY":267.4938,"EPHEMERIS_TYPE":0,"NORAD_CAT_ID":42992,"ELEMENT_SET_NO":999,"REV_AT_EPOCH":48640,"BSTAR":0.00016462,"MEAN_MOTION_DOT":0.00005361,"MEAN_MOTION_DDOT":0},{"OBJECT_NAME":"SKYSAT-C12","OBJECT_ID":"2018-099AR","EPOCH":"2026-07-13T20:00:08.752032","CLASSIFICATION_TYPE":"U","MEAN_MOTION":15.49756118,"ECCENTRICITY":0.0005423,"INCLINATION":96.9254,"RA_OF_ASC_NODE":217.012,"ARG_OF_PERICENTER":73.2945,"MEAN_ANOMALY":286.8903,"EPHEMERIS_TYPE":0,"NORAD_CAT_ID":43797,"ELEMENT_SET_NO":999,"REV_AT_EPOCH":42598,"BSTAR":0.00020126,"MEAN_MOTION_DOT":0.00011102,"MEAN_MOTION_DDOT":0}]}
