SKYSAT-A                
1 39418U 13066C   26194.71089617  .00001517  00000+0  88898-4 0  9990
2 39418  97.3804 243.2628 0020324 218.8459 141.1313 15.13110264692491
SKYSAT-B                
1 40072U 14037D   26194.82033043  .00000611  00000+0  73100-4 0  9995
2 40072  98.3852 155.3068 0005458 176.8262 183.2988 14.88090194649925
SKYSAT-C1               
1 41601U 16040C   26194.65696348  .00005359  00000+0  15145-3 0  9992
2 41601  96.9551 224.9469 0000427 340.2568  19.8661 15.36731294561932
SKYSAT-C4               
1 41771U 16058B   26193.59115844  .00011647  00000+0  21392-3 0  9996
2 41771  96.9166 214.3113 0003375 121.6663 238.4919 15.49378795549403
SKYSAT-C5               
1 41772U 16058C   26194.64543240  .00004323  00000+0  13491-3 0  9993
2 41772  97.0457 234.1005 0002362 164.8572 195.2743 15.33705753547800
SKYSAT-C2               
1 41773U 16058D   26194.59979318  .00007526  00000+0  17463-3 0  9998
2 41773  97.0164 215.7083 0001785   0.0746   0.0502 15.42656231549128
SKYSAT-C3               
1 41774U 16058E   26194.62408406  .00015609  00000+0  24573-3 0  9999
2 41774  96.8988 224.4719 0002484 134.4789 225.6669 15.53657678550218
SKYSAT-C11              
1 42987U 17068A   26194.38071131  .00019174  00000+0  24539-3 0  9995
2 42987  97.4370 344.3823 0001083 159.1653 200.9648 15.59255142487323
SKYSAT-C10              
1 42988U 17068B   26194.82645716  .00006257  00000+0  18613-3 0  9995
2 42988  97.4533 331.9455 0001429 109.4223 250.7175 15.35099425486447
SKYSAT-C9               
1 42989U 17068C   26194.84704615  .00007774  00000+0  18306-3 0  9996
2 42989  97.4452 333.1596 0008765  49.1345 311.0660 15.42193178486867
SKYSAT-C8               
1 42990U 17068D   26194.88702979  .00006283  00000+0  17326-3 0  9998
2 42990  97.4550 331.9095 0001236 102.2605 257.8778 15.37475090486412
SKYSAT-C7               
1 42991U 17068E   26194.88147227  .00006163  00000+0  17019-3 0  9994
2 42991  97.4561 332.8952 0005816  25.8991 334.2544 15.37426088486473
SKYSAT-C6               
1 42992U 17068F   26194.82331198  .00005361  00000+0  16462-3 0  9991
2 42992  97.4599 332.6960 0005137  92.6893 267.4938 15.34154916486403
SKYSAT-C12              
1 43797U 18099AR  26194.83343463  .00011102  00000+0  20126-3 0  9991
2 43797  96.9254 217.0120 0005423  73.2945 286.8903 15.49756118425985
